[{"OBJECT_NAME":"HULIANWANG DIGUI-149","OBJECT_ID":"2026-013D","EPOCH":"2026-03-09T17:56:12.794784","MEAN_MOTION":13.45498994,"ECCENTRICITY":0.00013534,"INCLINATION":50.0261,"RA_OF_ASC_NODE":352.9519,"ARG_OF_PERICENTER":310.6095,"MEAN_ANOMALY":49.4667,"EPHEMERIS_TYPE":0,"CLASSIFICATION_TYPE":"U","NORAD_CAT_ID":67525,"ELEMENT_SET_NO":999,"REV_AT_EPOCH":681,"BSTAR":0.00018460515,"MEAN_MOTION_DOT":-2.0e-7,"MEAN_MOTION_DDOT":0},{"OBJECT_NAME":"THOR ABLESTAR DEB","OBJECT_ID":"1963-038Q","EPOCH":"2026-03-07T12:51:46.130976","MEAN_MOTION":13.45413641,"ECCENTRICITY":0.00389835,"INCLINATION":89.9749,"RA_OF_ASC_NODE":333.4206,"ARG_OF_PERICENTER":278.0118,"MEAN_ANOMALY":202.8795,"EPHEMERIS_TYPE":0,"CLASSIFICATION_TYPE":"U","NORAD_CAT_ID":38521,"ELEMENT_SET_NO":999,"REV_AT_EPOCH":62183,"BSTAR":0.00019962947,"MEAN_MOTION_DOT":1.27e-6,"MEAN_MOTION_DDOT":0}]
